{
  "norad_id": 53970,
  "name": "STARLINK-4567",
  "history": [
    {
      "epoch": "2026-03-28T20:17:04.582752Z",
      "apogee_km": 540.7124737042168,
      "perigee_km": 538.7688267996027,
      "latitude_deg": 4.759340033986691e-05,
      "longitude_deg": 2.640445503043976,
      "height_km": 540.4973468412509,
      "semi_major_axis_km": 6917.8776502519095,
      "eccentricity": 0.00014048,
      "inclination_deg": 53.2164,
      "raan_deg": 133.1693,
      "arg_perigee_deg": 81.7853,
      "mean_anomaly_deg": 278.3299,
      "mean_motion_rev_day": 15.08840896
    }
  ]
}